C/2019 F2 (ATLAS),e,19.2376,175.5378,11.5531,16.65526,0.0145003,0.86519885,15.1477,07/19.0/2022,2000,g 12.0,4.0
# From MPEC 2021-P47
A/2019 G2,e,159.2103,208.1555,82.6149,502.6827,0.0000875,0.99543982,0.0000,12/09.2989/2019,2000,g 16.5,2.0
# From MPEC 2021-F20
A/2019 G3,e,156.8115,49.8630,161.9418,17.21746,0.0137959,0.83432642,18.2497,07/19.0/2022,2000,g 17.1,2.0
# From MPEC 2021-N06
A/2019 G4,h,09/16.0696/2018,138.3722,130.4610,287.8257,1.002046,5.852996,2000,13.0,2.0
# From MPC114607
P/2019 GG21 (PANSTARRS),e,6.0847,340.5660,208.6131,7.471770,0.0482579,0.47209220,56.2432,07/19.0/2022,2000,g 12.0,4.0
# From MPEC 2022-M21
C/2019 H1 (NEOWISE),e,104.5087,269.2417,19.3529,249.8928,0.0002495,0.99261248,0.0000,04/27.9767/2019,2000,g 15.5,4.0
# From MPEC 2022-O08
C/2019 J1 (Lemmon),e,24.5467,98.1262,167.7850,68.74299,0.0017293,0.96387415,2.0708,07/19.0/2022,2000,g 12.0,4.0
# From MPEC 2021-R75
C/2019 J2 (Palomar),e,105.2232,25.5471,98.7246,161.2075,0.0004815,0.98930190,0.0000,07/19.9904/2019,2000,g 13.0,4.0
# From MPC117071
C/2019 J3 (ATLAS),h,08/02.2587/2019,131.3818,270.5717,16.6232,1.000686,2.373594,2000,13.5,4.0
# From MPEC 2022-M21
C/2019 JU6 (ATLAS),e,148.3259,21.7556,95.0133,22639,0.0000003,0.99990959,0.0000,06/01.4561/2019,2000,g 14.5,4.0
# From MPEC 2022-O08
C/2019 K1 (ATLAS),e,87.0894,73.3594,265.7157,104670,0.0000000,0.99998077,0.0000,02/12.9480/2020,2000,g 10.0,4.0
# From MPC119997
C/2019 K4 (Ye),e,105.2965,180.1398,139.8214,1317,0.0000206,0.99828125,0.0000,06/15.8885/2019,2000,g 12.5,4.0
# From MPEC 2021-P47
C/2019 K5 (Young),e,15.3194,177.1262,175.0839,165.3299,0.0004636,0.98766939,0.0000,06/23.0786/2019,2000,g 13.0,4.0
# From MPEC 2021-P47
C/2019 K6 (PANSTARRS),e,132.3835,42.9785,187.6278,1861,0.0000123,0.99788965,0.0000,05/20.2173/2020,2000,g 11.5,4.0
# From MPEC 2022-O08
C/2019 K7 (Smith),h,06/17.4294/2020,103.5408,307.9425,27.3777,1.000602,4.477515,2000,6.0,4.0
# From MPEC 2021-R75
C/2019 K8 (ATLAS),e,93.1816,291.0423,85.3892,2715,0.0000070,0.99882369,0.0000,07/21.7514/2019,2000,g 11.5,4.0
# From MPC118095
C/2019 L1 (PANSTARRS),e,9.9851,254.4277,50.0294,9.842927,0.0319167,0.70577065,34.2404,07/19.0/2022,2000,g 13.5,4.0
# From MPC115886
C/2019 L2 (NEOWISE),e,152.2080,12.5507,18.8071,24.94830,0.0079094,0.93487852,9.5254,07/19.0/2022,2000,g 16.0,4.0
# From MPEC 2021-Y10
P/2019 LD2 (ATLAS),e,11.6219,179.5947,121.4121,5.237321,0.0822319,0.12745213,70.0006,07/19.0/2022,2000,g  8.5,4.0
# From MPEC 2022-O01
C/2019 L3 (ATLAS),h,01/09.6165/2022,48.3571,290.7885,171.6097,1.001773,3.554429,2000,4.5,4.0
# From MPC118095
C/2019 LB7 (Kleyna),e,164.2917,3.8857,336.5076,34.57199,0.0048486,0.92805405,5.8699,07/19.0/2022,2000,g 17.0,4.0
# From MPEC 2022-O08
P/2019 M2 (ATLAS),e,12.2767,307.6108,332.5737,3.028091,0.1870470,0.64773153,209.9924,07/19.0/2022,2000,g 21.2,4.0
# From MPC118095
C/2019 M3 (ATLAS),e,99.4880,154.9118,87.8829,36899,0.0000001,0.99993442,0.0000,01/01.5387/2019,2000,g 12.2,4.0
# From MPEC 2022-C56
C/2019 N1 (ATLAS),e,82.4287,13.5745,193.4398,2690,0.0000071,0.99936620,0.0000,12/01.6416/2020,2000,g  7.5,4.0
# From MPEC 2022-A21
C/2019 NJ3 (Lemmon),h,10/22.7409/2020,99.4343,142.4596,246.8958,1.002048,4.362581,2000,9.0,4.0
# From MPEC 2022-O01
A/2019 O2,e,93.2994,48.2749,129.6591,57.57021,0.0022564,0.83181101,359.4073,07/19.0/2022,2000,g  9.5,2.0
# From MPEC 2022-O08
C/2019 O3 (Palomar),h,03/09.1990/2021,89.8196,300.3988,60.1103,1.003968,8.820308,2000,3.5,4.0
# From MPEC 2021-P47
A/2019 O4,e,115.0969,354.9075,61.8875,33.15116,0.0051636,0.89000643,4.5930,07/19.0/2022,2000,g 15.5,2.0
# From MPEC 2021-N06
C/2019 Q1 (Lemmon),h,07/20.3302/2020,155.7260,42.4695,56.1546,1.000185,5.000441,2000,8.5,4.0
# From MPC117072
A/2019 Q2,e,159.0313,188.0060,176.3413,57.44334,0.0022638,0.97805227,0.0000,07/22.0234/2019,2000,g 18.0,2.0
# From MPC117072
C/2019 Q3 (PANSTARRS),h,08/21.5507/2018,65.5286,151.3259,152.7679,1.003028,7.261838,2000,8.5,4.0
# From MPC117072
P/2019 S2 (PANSTARRS),e,10.4690,93.1401,217.1002,4.740672,0.0954870,0.20623573,118.6455,07/19.0/2022,2000,g 13.5,4.0
# From MPEC 2022-CN4
P/2019 S3 (PANSTARRS),e,8.6947,150.1602,213.0194,3.415345,0.1561537,0.47123104,165.0881,07/19.0/2022,2000,g 18.3,4.0
# From MPEC 2021-S45
C/2019 S4 (Lemmon),e,92.0548,63.1519,71.3699,230.8067,0.0002811,0.98508472,0.0000,04/07.9087/2020,2000,g 11.0,4.0
# From MPEC 2022-L66
A/2019 T1,e,120.8767,6.9449,91.0688,38.56778,0.0041150,0.88897254,2.2648,07/19.0/2022,2000,g 13.0,2.0
# From MPEC 2022-L66
C/2019 T2 (Lemmon),e,111.4874,155.6442,239.4192,2751,0.0000068,0.99903788,0.0000,04/22.4048/2021,2000,g  9.0,4.0
# From MPEC 2022-O08
C/2019 T3 (ATLAS),e,121.8502,139.5300,112.4017,3315,0.0000052,0.99820512,0.0000,03/03.8690/2021,2000,g  6.8,4.0
# From MPEC 2022-O08
C/2019 T4 (ATLAS),e,53.6299,199.9388,351.1969,997.5773,0.0000313,0.99574730,0.0000,06/09.1097/2022,2000,g  5.0,4.0
# From MPEC 2021-P47
P/2019 T5 (ATLAS),e,33.4632,247.6434,189.5610,7.995682,0.0435934,0.80930010,47.1945,07/19.0/2022,2000,g 15.0,4.0
# From MPEC 2021-P47
P/2019 T6 (PANSTARRS),e,18.6974,71.2514,328.9475,5.436030,0.0777645,0.62293415,76.5051,07/19.0/2022,2000,g 15.5,4.0
# From MPC118096
P/2019 U4 (PANSTARRS),e,11.6989,200.0012,181.0013,3.520358,0.1492189,0.47592118,154.2912,07/19.0/2022,2000,g 19.0,4.0
# From MPEC 2022-O08
C/2019 U5 (PANSTARRS),h,03/29.9378/2023,113.5212,2.6371,181.5152,1.001378,3.623920,2000,4.5,4.0
# From MPEC 2022-H04
C/2019 U6 (Lemmon),e,60.9914,235.7261,329.6242,363.0071,0.0001425,0.99748148,0.0000,06/18.6005/2020,2000,g 10.0,4.0
# From MPEC 2022-N37
C/2019 V1 (Borisov),e,61.8825,83.1806,51.1710,1509,0.0000168,0.99794877,0.0000,07/16.3743/2020,2000,g 11.0,4.0
# From MPEC 2022-L66
P/2019 V2 (Groeller),e,11.8080,189.1840,335.8652,7.504218,0.0479453,0.33119593,30.6189,07/19.0/2022,2000,g 10.0,4.0
# From MPC119998
P/2019 W1 (PANSTARRS),e,23.4712,35.3788,18.6894,4.549436,0.1015705,0.26682315,118.6095,07/19.0/2022,2000,g 12.9,4.0
# From MPEC 2021-P47
P/2019 X1 (Pruyne),e,10.2483,43.6708,36.7826,6.173138,0.0642607,0.30329572,70.2747,07/19.0/2022,2000,g 10.4,4.0
# From MPC119999
C/2019 Y1 (ATLAS),e,73.3306,31.5432,57.9367,85.89917,0.0012380,0.99033348,0.0000,03/15.7218/2020,2000,g 13.7,4.0
# From MPEC 2022-O08
C/2019 Y4 (ATLAS),e,45.3174,120.6060,177.4513,349.8704,0.0001506,0.99927380,0.0000,05/31.0076/2020,2000,g 11.8,6.0
# From MPEC 2020-L06
C/2019 Y4-A (ATLAS),h,05/31.0319/2020,45.7630,120.9668,177.2844,1.001412,0.252223,2000,11.6,6.0
# From MPEC 2020-L06
C/2019 Y4-B (ATLAS),e,45.3979,120.6623,177.4173,1483,0.0000173,0.99982892,0.0000,05/31.0096/2020,2000,g 12.8,6.0
# From MPEC 2020-L06
C/2019 Y4-C (ATLAS),h,05/30.9883/2020,45.5451,120.6930,177.3178,1.002133,0.253283,2000,12.7,6.0
# From MPEC 2020-L06
C/2019 Y4-D (ATLAS),e,45.5878,121.0712,177.4555,68.39115,0.0017426,0.99630588,0.0000,05/31.1099/2020,2000,g 12.5,6.0
# From MPEC 2021-P47
C/2019 Y5 (PANSTARRS),e,82.7848,51.7676,303.5306,794.2750,0.0000440,0.99380997,0.0000,08/18.1864/2019,2000,g 11.0,4.0
# From MPEC 2022-O08
A/2020 A1,e,149.0415,119.2460,302.5828,25.76248,0.0075374,0.93527372,7.2307,07/19.0/2022,2000,g 18.0,2.0
# From MPEC 2020-L06
C/2020 A2 (Iwamoto),e,120.6917,286.3464,68.1452,1319,0.0000206,0.99926031,0.0000,01/08.5454/2020,2000,g 13.5,4.0
# From MPEC 2022-N37
C/2020 A3 (ATLAS),h,06/29.4549/2019,146.6876,120.7992,268.4218,1.001184,5.764437,2000,8.0,4.0
# From MPEC 2020-N08
A/2020 B1,e,18.5141,310.0051,154.7115,51.34844,0.0026786,0.96604383,2.5072,07/19.0/2022,2000,g 21.0,2.0
# From MPEC 2022-N37
C/2020 B3 (Rankin),e,20.7098,185.8491,324.9700,1011,0.0000307,0.99669590,0.0000,10/19.4115/2019,2000,g 13.0,4.0
# From MPEC 2022-H04
P/2020 B4 (Sheppard),e,11.6091,185.9793,342.2071,7.966756,0.0438310,0.19167926,10.5069,07/19.0/2022,2000,g 10.5,4.0
# From MPEC 2022-O08
C/2020 F2 (ATLAS),h,07/15.6732/2022,163.5852,250.2737,48.3548,1.005193,8.817089,2000,4.5,4.0
# From MPEC 2021-O56
C/2020 F3 (NEOWISE),e,129.0297,61.0420,37.3234,344.2142,0.0001543,0.99914194,0.0000,07/03.6114/2020,2000,g  7.5,5.2
# From MPEC 2022-O08
C/2020 F5 (MASTER),e,52.2558,350.5227,310.7243,214.7430,0.0003132,0.97986915,0.0000,03/18.8695/2021,2000,g  6.5,3.2
# From MPEC 2020-L06
C/2020 F6 (PANSTARRS),e,174.5830,207.9055,344.6064,413.7943,0.0001171,0.99151966,0.0000,04/11.7764/2020,2000,g 14.5,2.8
# From MPEC 2022-L66
C/2020 F7 (Lemmon),e,93.9511,321.8823,227.9578,633.5298,0.0000618,0.99158361,0.0000,11/13.8820/2021,2000,g  7.0,4.0
# From MPEC 2020-KB7
C/2020 F8 (SWAN),e,110.7094,259.9359,68.1595,263.6027,0.0002303,0.99837043,0.0000,05/27.5463/2020,2000,g 10.0,4.0
# From MPEC 2020-L06
P/2020 G1 (Pimentel),e,18.4954,240.1077,207.6183,3.608903,0.1437611,0.86010255,122.7173,07/19.0/2022,2000,g 17.0,4.0
# From MPEC 2020-L06
C/2020 H2 (Pruyne),e,124.9802,277.6561,26.6969,192.7405,0.0003683,0.99567943,0.0000,04/27.7591/2020,2000,g 18.0,4.0
# From MPEC 2020-HM1
C/2020 H3 (Wierzchos),p,06/05.7162/2020,62.5292,30.4456,2.300288,270.6227,2000,13.5,4.0
# From MPEC 2020-L06
C/2020 H4 (Leonard),e,84.5063,307.7080,117.5606,47.94636,0.0029687,0.98069689,0.0000,08/29.5929/2020,2000,g 15.0,3.2
# From MPEC 2022-N37
C/2020 H5 (Robinson),e,70.2460,210.6277,326.3789,3527,0.0000047,0.99735028,0.0000,12/11.4782/2020,2000,g  5.0,4.0
# From MPEC 2022-O08
C/2020 H6 (ATLAS),h,09/30.9850/2021,79.9755,213.7134,20.3364,1.000267,4.702762,2000,8.0,3.2
# From MPEC 2020-KB7
C/2020 H7 (Lemmon),e,135.9235,323.5194,82.6780,1405,0.0000187,0.99685380,0.0000,06/02.9510/2020,2000,g 11.0,4.0
# From MPEC 2021-N06
C/2020 H8 (PANSTARRS),e,99.6680,68.4140,128.9486,591.9312,0.0000684,0.99210055,0.0000,06/04.4902/2020,2000,g 10.5,4.0
# From MPEC 2022-ED3
A/2020 H9,e,137.8750,213.1650,312.8657,370.9692,0.0001379,0.99305281,0.0000,12/21.4042/2019,2000,g 18.0,2.0
# From MPEC 2022-O08
C/2020 J1 (SONEAR),h,04/18.6532/2021,142.3017,226.5916,341.7634,1.000743,3.354982,2000,8.5,3.2
# From MPEC 2022-M21
C/2020 K1 (PANSTARRS),e,89.6637,94.3558,213.9791,49409,0.0000001,0.99993780,0.0000,05/09.0669/2023,2000,g  5.5,4.0
# From MPEC 2021-N06
